{
  "norad_id": 64933,
  "name": "STARLINK-34737",
  "history": [
    {
      "epoch": "2026-03-28T21:23:32.042976Z",
      "apogee_km": 550.8346255309098,
      "perigee_km": 548.1723332946713,
      "latitude_deg": -1.7477418616984256e-05,
      "longitude_deg": 165.7901061586213,
      "height_km": 552.2184032400678,
      "semi_major_axis_km": 6927.64047941279,
      "eccentricity": 0.00019215,
      "inclination_deg": 97.6044,
      "raan_deg": 312.9789,
      "arg_perigee_deg": 74.8839,
      "mean_anomaly_deg": 285.26,
      "mean_motion_rev_day": 15.05652502
    },
    {
      "epoch": "2026-03-29T03:46:21.095904Z",
      "apogee_km": 552.0222341477111,
      "perigee_km": 547.1548141944286,
      "latitude_deg": 5.730449276484339e-05,
      "longitude_deg": 70.08377976791992,
      "height_km": 552.1173897418581,
      "semi_major_axis_km": 6927.72552417107,
      "eccentricity": 0.0003513,
      "inclination_deg": 97.6021,
      "raan_deg": 313.239,
      "arg_perigee_deg": 77.4154,
      "mean_anomaly_deg": 282.7466,
      "mean_motion_rev_day": 15.05624777
    },
    {
      "epoch": "2026-03-30T02:06:09.599904Z",
      "apogee_km": 550.823621810212,
      "perigee_km": 548.263151139372,
      "latitude_deg": 6.239887020432526e-05,
      "longitude_deg": 95.13501335518745,
      "height_km": 552.5713483400054,
      "semi_major_axis_km": 6927.680386474792,
      "eccentricity": 0.0001848,
      "inclination_deg": 97.6046,
      "raan_deg": 314.1594,
      "arg_perigee_deg": 88.472,
      "mean_anomaly_deg": 271.6719,
      "mean_motion_rev_day": 15.05639492
    },
    {
      "epoch": "2026-03-30T05:17:33.525024Z",
      "apogee_km": 550.7811229911686,
      "perigee_km": 548.2565466518436,
      "latitude_deg": 1.6068506631280838e-06,
      "longitude_deg": 47.285225790126,
      "height_km": 552.4947186157236,
      "semi_major_axis_km": 6927.655834821506,
      "eccentricity": 0.00018221,
      "inclination_deg": 97.6045,
      "raan_deg": 314.2903,
      "arg_perigee_deg": 86.0807,
      "mean_anomaly_deg": 274.0628,
      "mean_motion_rev_day": 15.05647496
    },
    {
      "epoch": "2026-03-30T14:51:45.782496Z",
      "apogee_km": 550.8018466680678,
      "perigee_km": 548.231964175312,
      "latitude_deg": -2.04985974398267e-05,
      "longitude_deg": -96.26587248561863,
      "height_km": 552.5567124253619,
      "semi_major_axis_km": 6927.653905421689,
      "eccentricity": 0.00018548,
      "inclination_deg": 97.6044,
      "raan_deg": 314.6833,
      "arg_perigee_deg": 89.005,
      "mean_anomaly_deg": 271.1389,
      "mean_motion_rev_day": 15.05648125
    },
    {
      "epoch": "2026-03-30T21:14:33.765792Z",
      "apogee_km": 550.7282009031369,
      "perigee_km": 548.2611327139521,
      "latitude_deg": -5.2305119331857096e-06,
      "longitude_deg": 168.03447829535665,
      "height_km": 552.4574633318854,
      "semi_major_axis_km": 6927.631666808544,
      "eccentricity": 0.00017806,
      "inclination_deg": 97.6048,
      "raan_deg": 314.9456,
      "arg_perigee_deg": 85.3761,
      "mean_anomaly_deg": 274.7669,
      "mean_motion_rev_day": 15.05655375
    },
    {
      "epoch": "2026-03-31T21:10:03.471168Z",
      "apogee_km": 550.8829301930809,
      "perigee_km": 548.0564666601222,
      "latitude_deg": 1.0835235802032443e-05,
      "longitude_deg": 169.16064365819665,
      "height_km": 552.369615881772,
      "semi_major_axis_km": 6927.606698426601,
      "eccentricity": 0.000204,
      "inclination_deg": 97.6041,
      "raan_deg": 315.9281,
      "arg_perigee_deg": 83.4219,
      "mean_anomaly_deg": 276.724,
      "mean_motion_rev_day": 15.05663515
    },
    {
      "epoch": "2026-04-01T21:05:32.610624Z",
      "apogee_km": 550.8964769397862,
      "perigee_km": 548.0173689054191,
      "latitude_deg": 2.499038387970541e-05,
      "longitude_deg": 170.28947360915956,
      "height_km": 552.483002195927,
      "semi_major_axis_km": 6927.593922922602,
      "eccentricity": 0.0002078,
      "inclination_deg": 97.6039,
      "raan_deg": 316.9109,
      "arg_perigee_deg": 88.5797,
      "mean_anomaly_deg": 271.5668,
      "mean_motion_rev_day": 15.0566768
    },
    {
      "epoch": "2026-04-02T21:01:01.925472Z",
      "apogee_km": 550.989826685015,
      "perigee_km": 547.8965235852138,
      "latitude_deg": 4.6596456638086196e-05,
      "longitude_deg": 171.41776928198996,
      "height_km": 552.526664912164,
      "semi_major_axis_km": 6927.580175135114,
      "eccentricity": 0.00022326,
      "inclination_deg": 97.6033,
      "raan_deg": 317.8939,
      "arg_perigee_deg": 90.814,
      "mean_anomaly_deg": 269.3343,
      "mean_motion_rev_day": 15.05672162
    },
    {
      "epoch": "2026-04-03T14:33:43.899840Z",
      "apogee_km": 550.9774530433224,
      "perigee_km": 547.9916481550144,
      "latitude_deg": -4.06381735879319e-05,
      "longitude_deg": -91.75745955023784,
      "height_km": 552.4819478629349,
      "semi_major_axis_km": 6927.621550599169,
      "eccentricity": 0.0002155,
      "inclination_deg": 97.6029,
      "raan_deg": 318.6141,
      "arg_perigee_deg": 87.5334,
      "mean_anomaly_deg": 272.6139,
      "mean_motion_rev_day": 15.05658673
    },
    {
      "epoch": "2026-04-04T14:29:14.016480Z",
      "apogee_km": 551.1840142266792,
      "perigee_km": 547.8019452705666,
      "latitude_deg": -3.185664248179186e-05,
      "longitude_deg": -90.63301348646425,
      "height_km": 552.4065426068795,
      "semi_major_axis_km": 6927.629979748623,
      "eccentricity": 0.0002441,
      "inclination_deg": 97.602,
      "raan_deg": 319.5966,
      "arg_perigee_deg": 84.9931,
      "mean_anomaly_deg": 275.1574,
      "mean_motion_rev_day": 15.05655925
    },
    {
      "epoch": "2026-04-05T14:24:44.462304Z",
      "apogee_km": 551.058513938121,
      "perigee_km": 547.9878978284642,
      "latitude_deg": 4.594223740831859e-05,
      "longitude_deg": -89.51085278741745,
      "height_km": 552.4430811186486,
      "semi_major_axis_km": 6927.660205883292,
      "eccentricity": 0.00022162,
      "inclination_deg": 97.6022,
      "raan_deg": 320.5782,
      "arg_perigee_deg": 84.7063,
      "mean_anomaly_deg": 275.4417,
      "mean_motion_rev_day": 15.05646071
    },
    {
      "epoch": "2026-04-05T20:47:32.539776Z",
      "apogee_km": 550.9553962317514,
      "perigee_km": 548.1067391223232,
      "latitude_deg": -2.9022942950213755e-05,
      "longitude_deg": 174.7896157137649,
      "height_km": 552.5808439070669,
      "semi_major_axis_km": 6927.6680676770375,
      "eccentricity": 0.0002056,
      "inclination_deg": 97.6024,
      "raan_deg": 320.841,
      "arg_perigee_deg": 89.5154,
      "mean_anomaly_deg": 270.6308,
      "mean_motion_rev_day": 15.05643508
    },
    {
      "epoch": "2026-04-06T04:46:02.586720Z",
      "apogee_km": 550.8707295961667,
      "perigee_km": 548.1602162896043,
      "latitude_deg": 2.0236512131769386e-05,
      "longitude_deg": 55.164190695297194,
      "height_km": 552.5425421723562,
      "semi_major_axis_km": 6927.652472942886,
      "eccentricity": 0.00019563,
      "inclination_deg": 97.6022,
      "raan_deg": 321.1683,
      "arg_perigee_deg": 88.5231,
      "mean_anomaly_deg": 271.622,
      "mean_motion_rev_day": 15.05648592
    },
    {
      "epoch": "2026-04-07T14:15:44.577216Z",
      "apogee_km": 550.7577565375959,
      "perigee_km": 548.2439938582011,
      "latitude_deg": -5.641168025776202e-05,
      "longitude_deg": -87.26115392384143,
      "height_km": 552.5384048037274,
      "semi_major_axis_km": 6927.637875197898,
      "eccentricity": 0.00018143,
      "inclination_deg": 97.602,
      "raan_deg": 322.5435,
      "arg_perigee_deg": 88.872,
      "mean_anomaly_deg": 271.2714,
      "mean_motion_rev_day": 15.05653351
    },
    {
      "epoch": "2026-04-07T20:38:32.481024Z",
      "apogee_km": 550.7372084052677,
      "perigee_km": 548.2529595399546,
      "latitude_deg": -1.0140325900389559e-05,
      "longitude_deg": 177.03912376269852,
      "height_km": 552.526728183237,
      "semi_major_axis_km": 6927.63208397261,
      "eccentricity": 0.0001793,
      "inclination_deg": 97.602,
      "raan_deg": 322.8054,
      "arg_perigee_deg": 88.5856,
      "mean_anomaly_deg": 271.5576,
      "mean_motion_rev_day": 15.05655239
    },
    {
      "epoch": "2026-04-08T14:11:14.340480Z",
      "apogee_km": 550.7196251713576,
      "perigee_km": 548.2736162925503,
      "latitude_deg": 1.1411960312561147e-06,
      "longitude_deg": -86.1358403135019,
      "height_km": 552.5782919743458,
      "semi_major_axis_km": 6927.633620731954,
      "eccentricity": 0.00017654,
      "inclination_deg": 97.6024,
      "raan_deg": 323.5254,
      "arg_perigee_deg": 90.9053,
      "mean_anomaly_deg": 269.2376,
      "mean_motion_rev_day": 15.05654738
    },
    {
      "epoch": "2026-04-09T12:31:02.234496Z",
      "apogee_km": 550.7258094999197,
      "perigee_km": 548.2595733297767,
      "latitude_deg": 3.6512417978381506e-05,
      "longitude_deg": -61.08616549335919,
      "height_km": 552.681825388301,
      "semi_major_axis_km": 6927.629691414848,
      "eccentricity": 0.000178,
      "inclination_deg": 97.6031,
      "raan_deg": 324.4417,
      "arg_perigee_deg": 95.9019,
      "mean_anomaly_deg": 264.2411,
      "mean_motion_rev_day": 15.05656019
    },
    {
      "epoch": "2026-04-10T12:26:32.233632Z",
      "apogee_km": 550.7364782372979,
      "perigee_km": 548.2522296337756,
      "latitude_deg": 7.325790611249085e-05,
      "longitude_deg": -59.961034226212654,
      "height_km": 552.6751086391848,
      "semi_major_axis_km": 6927.631353935536,
      "eccentricity": 0.0001793,
      "inclination_deg": 97.6032,
      "raan_deg": 325.4244,
      "arg_perigee_deg": 95.4722,
      "mean_anomaly_deg": 264.671,
      "mean_motion_rev_day": 15.05655477
    },
    {
      "epoch": "2026-04-11T13:57:44.222112Z",
      "apogee_km": 550.7606047053187,
      "perigee_km": 548.2264774533915,
      "latitude_deg": 1.0101807395587559e-05,
      "longitude_deg": -82.7602489232819,
      "height_km": 552.635744156696,
      "semi_major_axis_km": 6927.630541079355,
      "eccentricity": 0.0001829,
      "inclination_deg": 97.6033,
      "raan_deg": 326.4732,
      "arg_perigee_deg": 93.6187,
      "mean_anomaly_deg": 266.5249,
      "mean_motion_rev_day": 15.05655742
    },
    {
      "epoch": "2026-04-12T09:06:08.368128Z",
      "apogee_km": 550.6891482114215,
      "perigee_km": 548.3237736281244,
      "latitude_deg": -2.6203450311544553e-05,
      "longitude_deg": -9.860706882442571,
      "height_km": 552.6029462830976,
      "semi_major_axis_km": 6927.643460919772,
      "eccentricity": 0.00017072,
      "inclination_deg": 97.6034,
      "raan_deg": 327.2594,
      "arg_perigee_deg": 91.6504,
      "mean_anomaly_deg": 268.4918,
      "mean_motion_rev_day": 15.0565153
    },
    {
      "epoch": "2026-04-14T15:19:56.150112Z",
      "apogee_km": 550.6134724284084,
      "perigee_km": 548.3813886148946,
      "latitude_deg": 1.161221061014385e-05,
      "longitude_deg": -103.30994674106347,
      "height_km": 552.6376977984312,
      "semi_major_axis_km": 6927.634430521652,
      "eccentricity": 0.0001611,
      "inclination_deg": 97.6042,
      "raan_deg": 329.4864,
      "arg_perigee_deg": 93.9917,
      "mean_anomaly_deg": 266.1494,
      "mean_motion_rev_day": 15.05654474
    }
  ]
}